$$SOE
2460154.500000000, A.D. 2023-Jul-29 00:00:00.0000, 2.491275261052258E+07, 5.052788584297884E+08, -1.037724140559995E+07,
2460161.500000000, A.D. 2023-Aug-05 00:00:00.0000, 1.553666756416503E+07, 5.067465067286825E+08, -7.748509143122375E+06,
2460168.500000000, A.D. 2023-Aug-12 00:00:00.0000, 6.154827380890604E+06, 5.080254001613697E+08, -5.116889615565628E+06,
2460175.500000000, A.D. 2023-Aug-19 00:00:00.0000, -3.229263421703102E+06, 5.091162258496270E+08, -2.483374863441765E+06,
2460182.500000000, A.D. 2023-Aug-26 00:00:00.0000, -1.261214211521682E+07, 5.100197353688871E+08, 1.510544806368351E+05,
2460189.500000000, A.D. 2023-Sep-02 00:00:00.0000, -2.199038849541279E+07, 5.107367428364516E+08, 2.785429406521052E+06,
2460196.500000000, A.D. 2023-Sep-09 00:00:00.0000, -3.136062553507205E+07, 5.112681229092628E+08, 5.418792710264087E+06,
2460203.500000000, A.D. 2023-Sep-16 00:00:00.0000, -4.071951978902268E+07, 5.116148086351501E+08, 8.050199127612084E+06,
2460210.500000000, A.D. 2023-Sep-23 00:00:00.0000, -5.006378113778380E+07, 5.117777894463099E+08, 1.067871540327856E+07,
2460217.500000000, A.D. 2023-Sep-30 00:00:00.0000, -5.939016221214423E+07, 5.117581104882094E+08, 1.330342042525014E+07,
2460224.500000000, A.D. 2023-Oct-07 00:00:00.0000, -6.869545985420367E+07, 5.115568727430750E+08, 1.592340559644312E+07,
2460231.500000000, A.D. 2023-Oct-14 00:00:00.0000, -7.797651757709664E+07, 5.111752306345300E+08, 1.853777507850394E+07,
2460238.500000000, A.D. 2023-Oct-21 00:00:00.0000, -8.723022579855588E+07, 5.106143887172480E+08, 2.114564574360260E+07,
2460245.500000000, A.D. 2023-Oct-28 00:00:00.0000, -9.645352127501982E+07, 5.098755997146424E+08, 2.374614715046856E+07,
2460252.500000000, A.D. 2023-Nov-04 00:00:00.0000, -1.056433869875257E+08, 5.089601631351435E+08, 2.633842159726235E+07,
2460259.500000000, A.D. 2023-Nov-11 00:00:00.0000, -1.147968523034991E+08, 5.078694238668672E+08, 2.892162418687135E+07,
2460266.500000000, A.D. 2023-Nov-18 00:00:00.0000, -1.239109931970970E+08, 5.066047706858169E+08, 3.149492288007990E+07,
2460273.500000000, A.D. 2023-Nov-25 00:00:00.0000, -1.329829324579180E+08, 5.051676346997139E+08, 3.405749853256077E+07,
2460280.500000000, A.D. 2023-Dec-02 00:00:00.0000, -1.420098398629403E+08, 5.035594877162891E+08, 3.660854491295755E+07,
2460287.500000000, A.D. 2023-Dec-09 00:00:00.0000, -1.509889322369162E+08, 5.017818404778918E+08, 3.914726869087422E+07,
2460294.500000000, A.D. 2023-Dec-16 00:00:00.0000, -1.599174731163076E+08, 4.998362407761971E+08, 4.167288937017250E+07,
2460301.500000000, A.D. 2023-Dec-23 00:00:00.0000, -1.687927716704926E+08, 4.977242721357592E+08, 4.418463919246089E+07,
2460308.500000000, A.D. 2023-Dec-30 00:00:00.0000, -1.776121822221239E+08, 4.954475541171016E+08, 4.668176322001630E+07,
2460315.500000000, A.D. 2024-Jan-06 00:00:00.0000, -1.863731061395370E+08, 4.930077418789098E+08, 4.916351956811011E+07,
2460322.500000000, A.D. 2024-Jan-13 00:00:00.0000, -1.950729929292671E+08, 4.904065231902163E+08, 5.162917934816629E+07,
2460329.500000000, A.D. 2024-Jan-20 00:00:00.0000, -2.037093393079181E+08, 4.876456159761635E+08, 5.407802646179911E+07,
2460336.500000000, A.D. 2024-Jan-27 00:00:00.0000, -2.122796882842754E+08, 4.847267670500879E+08, 5.650935748532897E+07,
2460343.500000000, A.D. 2024-Feb-03 00:00:00.0000, -2.207816286814958E+08, 4.816517510828978E+08, 5.892248160668936E+07,
2460350.500000000, A.D. 2024-Feb-10 00:00:00.0000, -2.292127948238050E+08, 4.784223695179118E+08, 6.131672056569323E+07,
2460357.500000000, A.D. 2024-Feb-17 00:00:00.0000, -2.375708662509184E+08, 4.750404494387140E+08, 6.369140858587798E+07,
2460364.500000000, A.D. 2024-Feb-24 00:00:00.0000, -2.458535674259939E+08, 4.715078424046701E+08, 6.604589229619396E+07,
2460371.500000000, A.D. 2024-Mar-02 00:00:00.0000, -2.540586674092754E+08, 4.678264232214310E+08, 6.837953063756570E+07,
2460378.500000000, A.D. 2024-Mar-09 00:00:00.0000, -2.621839793599411E+08, 4.639980885832751E+08, 7.069169473682192E+07,
2460385.500000000, A.D. 2024-Mar-16 00:00:00.0000, -2.702273594721258E+08, 4.600247557840576E+08, 7.298176772820660E+07,
2460392.500000000, A.D. 2024-Mar-23 00:00:00.0000, -2.781867054501950E+08, 4.559083626054169E+08, 7.524914462298098E+07,
2460399.500000000, A.D. 2024-Mar-30 00:00:00.0000, -2.860599567658671E+08, 4.516508683556689E+08, 7.749323243094307E+07,
2460406.500000000, A.D. 2024-Apr-06 00:00:00.0000, -2.938450964413627E+08, 4.472542526913781E+08, 7.971345023543361E+07,
2460413.500000000, A.D. 2024-Apr-13 00:00:00.0000, -3.015401508079278E+08, 4.427205130559168E+08, 8.190922896452186E+07,
2460420.500000000, A.D. 2024-Apr-20 00:00:00.0000, -3.091431881939911E+08, 4.380516634108452E+08, 8.408001116482800E+07,
2460427.500000000, A.D. 2024-Apr-27 00:00:00.0000, -3.166523180613841E+08, 4.332497336990399E+08, 8.622525087172455E+07,
2460434.500000000, A.D. 2024-May-04 00:00:00.0000, -3.240656905023550E+08, 4.283167693358096E+08, 8.834441351069930E+07,
2460441.500000000, A.D. 2024-May-11 00:00:00.0000, -3.313814958598050E+08, 4.232548306255239E+08, 9.043697580001763E+07,
2460448.500000000, A.D. 2024-May-18 00:00:00.0000, -3.385979643896872E+08, 4.180659921248586E+08, 9.250242564931014E+07,
2460455.500000000, A.D. 2024-May-25 00:00:00.0000, -3.457133659417931E+08, 4.127523419451714E+08, 9.454026205166936E+07,
2460462.500000000, A.D. 2024-Jun-01 00:00:00.0000, -3.527260095999788E+08, 4.073159809362676E+08, 9.654999495954664E+07,
2460469.500000000, A.D. 2024-Jun-08 00:00:00.0000, -3.596342430363205E+08, 4.017590217282775E+08, 9.853114512047298E+07,
2460476.500000000, A.D. 2024-Jun-15 00:00:00.0000, -3.664364511805535E+08, 3.960835881763441E+08, 1.004832438810244E+08,
2460483.500000000, A.D. 2024-Jun-22 00:00:00.0000, -3.731310552111634E+08, 3.902918163831385E+08, 1.024058331478849E+08,
2460490.500000000, A.D. 2024-Jun-29 00:00:00.0000, -3.797165139906439E+08, 3.843858554789507E+08, 1.042984655524910E+08,
2460497.500000000, A.D. 2024-Jul-06 00:00:00.0000, -3.861913252992010E+08, 3.783678656880192E+08, 1.061607043749479E+08,
2460504.500000000, A.D. 2024-Jul-13 00:00:00.0000, -3.925540249170886E+08, 3.722400165033256E+08, 1.079921232790752E+08,
2460511.500000000, A.D. 2024-Jul-20 00:00:00.0000, -3.988031855421069E+08, 3.660044861173499E+08, 1.097923061346851E+08,
2460518.500000000, A.D. 2024-Jul-27 00:00:00.0000, -4.049374161988867E+08, 3.596634611487005E+08, 1.115608469089342E+08,
2460525.500000000, A.D. 2024-Aug-03 00:00:00.0000, -4.109553618675227E+08, 3.532191362886921E+08, 1.132973495710306E+08,
2460532.500000000, A.D. 2024-Aug-10 00:00:00.0000, -4.168557031667240E+08, 3.466737138626474E+08, 1.150014279947685E+08,
2460539.500000000, A.D. 2024-Aug-17 00:00:00.0000, -4.226371560452549E+08, 3.400294033274908E+08, 1.166727058564858E+08,
2460546.500000000, A.D. 2024-Aug-24 00:00:00.0000, -4.282984714546902E+08, 3.332884206836452E+08, 1.183108165242062E+08,
2460553.500000000, A.D. 2024-Aug-31 00:00:00.0000, -4.338384348883097E+08, 3.264529877400335E+08, 1.199154029223496E+08,
2460560.500000000, A.D. 2024-Sep-07 00:00:00.0000, -4.392558654207644E+08, 3.195253313585652E+08, 1.214861173486689E+08,
2460567.500000000, A.D. 2024-Sep-14 00:00:00.0000, -4.445496141633886E+08, 3.125076836736150E+08, 1.230226213167638E+08,
2460574.500000000, A.D. 2024-Sep-21 00:00:00.0000, -4.497185641646006E+08, 3.054022836987439E+08, 1.245245856439050E+08,
2460581.500000000, A.D. 2024-Sep-28 00:00:00.0000, -4.547616322433630E+08, 2.982113770932280E+08, 1.259916905651834E+08,
2460588.500000000, A.D. 2024-Oct-05 00:00:00.0000, -4.596777690851691E+08, 2.909372140896161E+08, 1.274236255371998E+08,
2460595.500000000, A.D. 2024-Oct-12 00:00:00.0000, -4.644659579609051E+08, 2.835820485609280E+08, 1.288200890075398E+08,
2460602.500000000, A.D. 2024-Oct-19 00:00:00.0000, -4.691252138204955E+08, 2.761481379560427E+08, 1.301807882886408E+08,
2460609.500000000, A.D. 2024-Oct-26 00:00:00.0000, -4.736545827942464E+08, 2.686377433019444E+08, 1.315054394737398E+08,
2460616.500000000, A.D. 2024-Nov-02 00:00:00.0000, -4.780531418445143E+08, 2.610531291243124E+08, 1.327937673592437E+08,
2460623.500000000, A.D. 2024-Nov-09 00:00:00.0000, -4.823199984710099E+08, 2.533965633068555E+08, 1.340455053663865E+08,
2460630.500000000, A.D. 2024-Nov-16 00:00:00.0000, -4.864542904437953E+08, 2.456703168893604E+08, 1.352603954598908E+08,
2460637.500000000, A.D. 2024-Nov-23 00:00:00.0000, -4.904551855170383E+08, 2.378766637542874E+08, 1.364381880553468E+08,
2460644.500000000, A.D. 2024-Nov-30 00:00:00.0000, -4.943218809151972E+08, 2.300178801589921E+08, 1.375786418928230E+08,
2460651.500000000, A.D. 2024-Dec-07 00:00:00.0000, -4.980536021721261E+08, 2.220962445338163E+08, 1.386815238727011E+08,
2460658.500000000, A.D. 2024-Dec-14 00:00:00.0000, -5.016496020118322E+08, 2.141140387694848E+08, 1.397466090170556E+08,
2460665.500000000, A.D. 2024-Dec-21 00:00:00.0000, -5.051091615901675E+08, 2.060735497527165E+08, 1.407736806682369E+08,
2460672.500000000, A.D. 2024-Dec-28 00:00:00.0000, -5.084315921253535E+08, 1.979770681830193E+08, 1.417625305017001E+08,
2460679.500000000, A.D. 2025-Jan-04 00:00:00.0000, -5.116162343192225E+08, 1.898268870465370E+08, 1.427129583090204E+08,
2460686.500000000, A.D. 2025-Jan-11 00:00:00.0000, -5.146624573901486E+08, 1.816253014056282E+08, 1.436247718538164E+08,
2460693.500000000, A.D. 2025-Jan-18 00:00:00.0000, -5.175696586353037E+08, 1.733746085847811E+08, 1.444977868100961E+08,
2460700.500000000, A.D. 2025-Jan-25 00:00:00.0000, -5.203372632791566E+08, 1.650771082782242E+08, 1.453318267224391E+08,
2460707.500000000, A.D. 2025-Feb-01 00:00:00.0000, -5.229647244187316E+08, 1.567351025489158E+08, 1.461267229685640E+08,
2460714.500000000, A.D. 2025-Feb-08 00:00:00.0000, -5.254515230071823E+08, 1.483508957382789E+08, 1.468823147208456E+08,
2460721.500000000, A.D. 2025-Feb-15 00:00:00.0000, -5.277971678468729E+08, 1.399267942663820E+08, 1.475984489027872E+08,
$$EOE